     2.10           G: GLONASS NAV DATA                     RINEX VERSION / TYPE
teqc  2015Jun23                         20210526 02:25:47UTCPGM / RUN BY / DATE
Linux 2.4.21-27.ELsmp|Opteron|gcc -static|Linux x86_64|=+   COMMENT
  2021     5     2    1.536682248116D-08                    CORR TO SYSTEM TIME
                                                            END OF HEADER
16 21  5  3 20 15  0.0-1.463294029236D-05-9.094947017729D-13 7.200000000000D+04
   -8.409620605469D+03 3.254890441895D-02-0.000000000000D+00 0.000000000000D+00
    1.603892285156D+04-2.458508491516D+00-9.313225746155D-10-1.000000000000D+00
    1.787829443359D+04 2.229619979858D+00-2.793967723846D-09 0.000000000000D+00
21 21  5  3 20 15  0.0-2.062823623419D-04-2.728484105319D-12 7.200000000000D+04
    1.820831054688D+04-9.144926071167D-01 0.000000000000D+00 0.000000000000D+00
    1.556172900391D+04-8.068752288818D-01-0.000000000000D+00 4.000000000000D+00
   -8.748463378906D+03-3.341591835022D+00 9.313225746155D-10 0.000000000000D+00
20 21  5  3 20 15  0.0-4.845950752497D-05-0.000000000000D+00 7.203000000000D+04
    1.754222656250D+03-2.498117446899D+00-1.862645149231D-09 0.000000000000D+00
    1.273734033203D+04-1.704148292542D+00 9.313225746155D-10 2.000000000000D+00
   -2.203629150391D+04-1.179209709167D+00 9.313225746155D-10 0.000000000000D+00
 6 21  5  3 20 45  0.0 1.973081380129D-04 0.000000000000D+00 7.380000000000D+04
   -1.125081396484D+04-1.487593650818D+00-9.313225746155D-10 0.000000000000D+00
    1.774207958984D+04 1.310212135315D+00-0.000000000000D+00-4.000000000000D+00
    1.444928369141D+04-2.768204689026D+00-2.793967723846D-09 0.000000000000D+00
 5 21  5  3 20 45  0.0 7.107853889465D-05 9.094947017729D-13 7.380000000000D+04
   -2.131958984375D+04 6.029262542725D-01-2.793967723846D-09 0.000000000000D+00
    1.323390380859D+04-2.288312911987D-01 1.862645149231D-09 1.000000000000D+00
   -4.508159179688D+03-3.511662483215D+00-1.862645149231D-09 0.000000000000D+00
 9 21  5  3 20 45  0.0-8.937902748585D-06 2.728484105319D-12 7.380000000000D+04
   -1.474934082031D+03-6.313896179199D-02-0.000000000000D+00 0.000000000000D+00
    2.370322607422D+04-1.287373542786D+00-0.000000000000D+00-2.000000000000D+00
    9.418616210938D+03 3.228289604187D+00-2.793967723846D-09 0.000000000000D+00
16 21  5  3 20 45  0.0-1.463573426008D-05-9.094947017729D-13 7.380000000000D+04
   -8.712340332031D+03-3.857240676880D-01 0.000000000000D+00 0.000000000000D+00
    1.119428125000D+04-2.878453254700D+00-9.313225746155D-10-1.000000000000D+00
    2.114379833984D+04 1.375247001648D+00-2.793967723846D-09 0.000000000000D+00
20 21  5  3 20 45  0.0-4.846043884754D-05-0.000000000000D+00 7.380000000000D+04
   -3.128382812500D+03-2.884974479675D+00-1.862645149231D-09 0.000000000000D+00
    9.939646484375D+03-1.371767044067D+00 1.862645149231D-09 2.000000000000D+00
   -2.327997900391D+04-1.935596466064D-01 9.313225746155D-10 0.000000000000D+00
21 21  5  3 20 45  0.0-2.062879502773D-04-2.728484105319D-12 7.380000000000D+04
    1.582267626953D+04-1.729316711426D+00-0.000000000000D+00 0.000000000000D+00
    1.393411572266D+04-9.566221237183D-01 0.000000000000D+00 4.000000000000D+00
   -1.434700634766D+04-2.838609695435D+00 9.313225746155D-10 0.000000000000D+00
 7 21  5  3 20 45  0.0-4.250649362803D-05 0.000000000000D+00 7.524000000000D+04
    3.973246582031D+03-2.486271858215D+00 9.313225746155D-10 0.000000000000D+00
    1.063183642578D+04 1.887672424316D+00-1.862645149231D-09 5.000000000000D+00
    2.288350781250D+04-4.499673843384D-01-1.862645149231D-09 0.000000000000D+00
 6 21  5  3 21 15  0.0 1.973090693355D-04 0.000000000000D+00 7.560000000000D+04
   -1.327542480469D+04-7.654733657837D-01-1.862645149231D-09 0.000000000000D+00
    1.983377880859D+04 9.703998565674D-01 0.000000000000D+00-4.000000000000D+00
    8.971659667969D+03-3.278487205505D+00-2.793967723846D-09 0.000000000000D+00
 5 21  5  3 21 15  0.0 7.107947021723D-05 0.000000000000D+00 7.560000000000D+04
   -1.970530664062D+04 1.152329444885D+00-1.862645149231D-09 0.000000000000D+00
    1.223706298828D+04-8.972940444946D-01 2.793967723846D-09 1.000000000000D+00
   -1.057272998047D+04-3.182894706726D+00-9.313225746155D-10 0.000000000000D+00
 9 21  5  3 21 15  0.0-8.934177458286D-06 2.728484105319D-12 7.560000000000D+04
   -1.903474609375D+03-4.406595230103D-01-0.000000000000D+00 0.000000000000D+00
    2.074019287109D+04-1.971792221069D+00-0.000000000000D+00-2.000000000000D+00
    1.479234179688D+04 2.703902244568D+00-2.793967723846D-09 0.000000000000D+00
21 21  5  3 21 15  0.0-2.062926068902D-04-2.728484105319D-12 7.560000000000D+04
    1.204303027344D+04-2.444138526917D+00-0.000000000000D+00 0.000000000000D+00
    1.227494531250D+04-8.461523056030D-01 9.313225746155D-10 4.000000000000D+00
   -1.883547607422D+04-2.116227149963D+00 9.313225746155D-10 0.000000000000D+00
 7 21  5  3 21 15  0.0-4.250369966030D-05 0.000000000000D+00 7.584000000000D+04
   -1.136650390625D+02-2.023967742920D+00 0.000000000000D+00 0.000000000000D+00
    1.422872802734D+04 2.068368911743D+00-9.313225746155D-10 5.000000000000D+00
    2.120289892578D+04-1.405468940735D+00-2.793967723846D-09 0.000000000000D+00
 6 21  5  3 21 45  0.0 1.973100006580D-04 0.000000000000D+00 7.740000000000D+04
   -1.405175927734D+04-1.181859970093D-01-1.862645149231D-09 0.000000000000D+00
    2.109077929688D+04 3.907709121704D-01 9.313225746155D-10-4.000000000000D+00
    2.799400390625D+03-3.534983634949D+00-1.862645149231D-09 0.000000000000D+00
 5 21  5  3 21 45  0.0 7.108040153980D-05 0.000000000000D+00 7.740000000000D+04
   -1.732443603516D+04 1.447831153870D+00-1.862645149231D-09 0.000000000000D+00
    9.969090820312D+03-1.622871398926D+00 2.793967723846D-09 1.000000000000D+00
   -1.581818896484D+04-2.607457160950D+00 0.000000000000D+00 0.000000000000D+00
 7 21  5  3 21 45  0.0-4.250276833773D-05 0.000000000000D+00 7.740000000000D+04
   -3.231755371094D+03-1.426814079285D+00-0.000000000000D+00 0.000000000000D+00
    1.791781689453D+04 1.983586311340D+00-0.000000000000D+00 5.000000000000D+00
    1.788831054688D+04-2.253747940063D+00-2.793967723846D-09 0.000000000000D+00
 9 21  5  3 21 45  0.0-8.929520845413D-06 2.728484105319D-12 7.740000000000D+04
   -3.135702148438D+03-9.413318634033D-01-0.000000000000D+00 0.000000000000D+00
    1.674620507812D+04-2.421740531921D+00-9.313225746155D-10-2.000000000000D+00
    1.902730566406D+04 1.971118927002D+00-2.793967723846D-09 0.000000000000D+00
 6 21  5  3 22 15  0.0 1.973109319806D-04 0.000000000000D+00 7.920000000000D+04
   -1.380273193359D+04 3.604640960693D-01-1.862645149231D-09 0.000000000000D+00
    2.113651123047D+04-3.612079620361D-01 2.793967723846D-09-4.000000000000D+00
   -3.589624023438D+03-3.517770767212D+00-1.862645149231D-09 0.000000000000D+00
 7 21  5  3 22 15  0.0-4.250276833773D-05 0.000000000000D+00 7.920000000000D+04
   -5.234094238281D+03-8.028326034546D-01-9.313225746155D-10 0.000000000000D+00
    2.119934130859D+04 1.616532325745D+00 0.000000000000D+00 5.000000000000D+00
    1.319336425781D+04-2.929197311401D+00-2.793967723846D-09 0.000000000000D+00
 5 21  5  3 22 15  0.0 7.108133286238D-05 0.000000000000D+00 7.920000000000D+04
   -1.465731640625D+04 1.471230506897D+00-9.313225746155D-10 0.000000000000D+00
    6.428742187500D+03-2.291917800903D+00 2.793967723846D-09 1.000000000000D+00
   -1.983803369141D+04-1.829980850220D+00 9.313225746155D-10 0.000000000000D+00
 9 21  5  3 22 15  0.0-8.925795555115D-06 1.818989403546D-12 7.920000000000D+04
   -5.307321777344D+03-1.466813087463D+00-0.000000000000D+00 0.000000000000D+00
    1.219145800781D+04-2.590626716614D+00-9.313225746155D-10-2.000000000000D+00
    2.179669580078D+04 1.085943222046D+00-2.793967723846D-09 0.000000000000D+00
21 21  5  3 22 15  0.0-2.063028514385D-04-2.728484105319D-12 8.028000000000D+04
    1.581289550781D+03-3.180677413940D+00-9.313225746155D-10 0.000000000000D+00
    1.047163427734D+04-6.986618041992D-02 1.862645149231D-09 4.000000000000D+00
   -2.320832226562D+04-2.500486373901D-01 9.313225746155D-10 0.000000000000D+00
 8 21  5  3 22 15  0.0-5.882140249014D-05 0.000000000000D+00 8.079000000000D+04
    6.335295410156D+03-1.528515815735D+00 0.000000000000D+00 0.000000000000D+00
    1.032470458984D+04 2.657259941101D+00-1.862645149231D-09 6.000000000000D+00
    2.250636425781D+04-7.924537658691D-01-1.862645149231D-09 0.000000000000D+00
 6 21  5  3 22 45  0.0 1.973118633032D-04 0.000000000000D+00 8.100000000000D+04
   -1.289312402344D+04 6.088171005249D-01-9.313225746155D-10 0.000000000000D+00
    1.974579052734D+04-1.187070846558D+00 2.793967723846D-09-4.000000000000D+00
   -9.700755859375D+03-3.228240966797D+00-9.313225746155D-10 0.000000000000D+00
21 21  5  3 22 45  0.0-2.063075080514D-04-2.728484105319D-12 8.100000000000D+04
   -4.112475097656D+03-3.092880249023D+00-9.313225746155D-10 0.000000000000D+00
    1.077885449219D+04 4.056682586670D-01 2.793967723846D-09 4.000000000000D+00
   -2.275593652344D+04 7.493839263916D-01 9.313225746155D-10 0.000000000000D+00
 7 21  5  3 22 45  0.0-4.250276833773D-05-0.000000000000D+00 8.100000000000D+04
   -6.171144042969D+03-2.602310180664D-01-9.313225746155D-10 0.000000000000D+00
    2.358447412109D+04 9.961357116699D-01 9.313225746155D-10 5.000000000000D+00
    7.478864746094D+03-3.379118919373D+00-2.793967723846D-09 0.000000000000D+00
 8 21  5  3 22 45  0.0-5.882233381271D-05 0.000000000000D+00 8.100000000000D+04
    4.045347167969D+03-1.007110595703D+00-0.000000000000D+00 0.000000000000D+00
    1.507067236328D+04 2.566581726074D+00-9.313225746155D-10 6.000000000000D+00
    2.023329589844D+04-1.717022895813D+00-2.793967723846D-09 0.000000000000D+00
 6 21  5  3 23 15  0.0 1.973127946258D-04 0.000000000000D+00 8.280000000000D+04
   -1.176186865234D+04 6.072311401367D-01-0.000000000000D+00 0.000000000000D+00
    1.688696972656D+04-1.973190307617D+00 3.725290298462D-09-4.000000000000D+00
   -1.506105371094D+04-2.688967704773D+00 0.000000000000D+00 0.000000000000D+00
